[
    {
        "Altitude(m)": 607886.6792141126,
        "Argument of Periapsis(deg)": 0.0,
        "Eccentricity": 0.0,
        "Inclination(deg)": 60.0,
        "Latitude(deg)": 40.99841051554422,
        "Longitude(deg)": -135.02698237601612,
        "Mean Anomaly(deg)": 49.09089999999999,
        "RAAN(deg)": 295.00000000000006,
        "Satellite Name": "Test1 1301",
        "Satellite Number": 1301,
        "Semi-Major Axis(m)": 6980739.136638005,
        "Time(s)": 0
    },
    {
        "Altitude(m)": 607987.5930860586,
        "Argument of Periapsis(deg)": 0.00010418945913296404,
        "Eccentricity": 0.0,
        "Inclination(deg)": 60.0,
        "Latitude(deg)": 41.46350020809712,
        "Longitude(deg)": -134.522754133023,
        "Mean Anomaly(deg)": 49.711006145461845,
        "RAAN(deg)": 294.99957995086027,
        "Satellite Name": "Test1 1301",
        "Satellite Number": 1301,
        "Semi-Major Axis(m)": 6980739.136638005,
        "Time(s)": 10
    }
]